{
  "type": "FeatureCollection",
  "features": [
    {
      "type": "Feature",
      "geometry": {
        "type": "Point",
        "coordinates": [
          112.883841,
          22.858808
        ]
      },
      "properties": {
        "id": "B0FFGA58BQ",
        "name": "银坑村祠堂(乡约)",
        "town": "西樵镇",
        "rev_count": 2,
        "avg_rate": 4.1
      }
    },
    {
      "type": "Feature",
      "geometry": {
        "type": "Point",
        "coordinates": [
          113.122488,
          23.115259
        ]
      },
      "properties": {
        "id": "B0FFFEOXGO",
        "name": "拱北公园",
        "town": "里水镇",
        "rev_count": 10,
        "avg_rate": 0
      }
    },
    {
      "type": "Feature",
      "geometry": {
        "type": "Point",
        "coordinates": [
          113.12273,
          23.111971
        ]
      },
      "properties": {
        "id": "B02F507JSS",
        "name": "大沥公园",
        "town": "大沥镇",
        "rev_count": 8,
        "avg_rate": 4.3
      }
    },
    {
      "type": "Feature",
      "geometry": {
        "type": "Point",
        "coordinates": [
          113.04637,
          23.068734
        ]
      },
      "properties": {
        "id": "B02F50UZ0J",
        "name": "芦溪公园",
        "town": "狮山镇",
        "rev_count": 7,
        "avg_rate": 0
      }
    },
    {
      "type": "Feature",
      "geometry": {
        "type": "Point",
        "coordinates": [
          113.097516,
          23.266155
        ]
      },
      "properties": {
        "id": "B02F5076X1",
        "name": "和桂文化广场",
        "town": "里水镇",
        "rev_count": 1,
        "avg_rate": 0
      }
    },
    {
      "type": "Feature",
      "geometry": {
        "type": "Point",
        "coordinates": [
          113.166471,
          23.201059
        ]
      },
      "properties": {
        "id": "B02F50UEOH",
        "name": "信峰公园",
        "town": "里水镇",
        "rev_count": 20,
        "avg_rate": 0
      }
    },
    {
      "type": "Feature",
      "geometry": {
        "type": "Point",
        "coordinates": [
          113.006075,
          22.822722
        ]
      },
      "properties": {
        "id": "B0FFH989SN",
        "name": "九江镇望海观音寺(不对外开放)",
        "town": "九江镇",
        "rev_count": 2,
        "avg_rate": 0
      }
    },
    {
      "type": "Feature",
      "geometry": {
        "type": "Point",
        "coordinates": [
          113.142719,
          23.172335
        ]
      },
      "properties": {
        "id": "B0FFG3CTQM",
        "name": "甘蕉公园",
        "town": "里水镇",
        "rev_count": 10,
        "avg_rate": 0
      }
    },
    {
      "type": "Feature",
      "geometry": {
        "type": "Point",
        "coordinates": [
          112.99295,
          23.097592
        ]
      },
      "properties": {
        "id": "B0FFF0FDHE",
        "name": "佛山植物园",
        "town": "狮山镇",
        "rev_count": 12,
        "avg_rate": 4.6
      }
    },
    {
      "type": "Feature",
      "geometry": {
        "type": "Point",
        "coordinates": [
          113.002752,
          23.119338
        ]
      },
      "properties": {
        "id": "B02F50XHK7",
        "name": "市民广场",
        "town": "狮山镇",
        "rev_count": 3,
        "avg_rate": 4.2
      }
    },
    {
      "type": "Feature",
      "geometry": {
        "type": "Point",
        "coordinates": [
          112.98903,
          22.946354
        ]
      },
      "properties": {
        "id": "B02F50WH85",
        "name": "河滨公园",
        "town": "西樵镇",
        "rev_count": 25,
        "avg_rate": 0
      }
    },
    {
      "type": "Feature",
      "geometry": {
        "type": "Point",
        "coordinates": [
          112.890483,
          23.052763
        ]
      },
      "properties": {
        "id": "B0FFJ8L54R",
        "name": "仙湖音乐喷泉广场",
        "town": "狮山镇",
        "rev_count": 4,
        "avg_rate": 0
      }
    },
    {
      "type": "Feature",
      "geometry": {
        "type": "Point",
        "coordinates": [
          113.197274,
          23.140697
        ]
      },
      "properties": {
        "id": "B0FFIKDTX5",
        "name": "天空之眼摩天轮(金沙洲万达广场)",
        "town": "里水镇",
        "rev_count": 10,
        "avg_rate": 0
      }
    },
    {
      "type": "Feature",
      "geometry": {
        "type": "Point",
        "coordinates": [
          113.174503,
          23.226727
        ]
      },
      "properties": {
        "id": "B0FFHF702W",
        "name": "梦里水乡百花园",
        "town": "里水镇",
        "rev_count": 15,
        "avg_rate": 4.4
      }
    },
    {
      "type": "Feature",
      "geometry": {
        "type": "Point",
        "coordinates": [
          113.053367,
          23.060848
        ]
      },
      "properties": {
        "id": "B02F50YCH3",
        "name": "罗村中心广场",
        "town": "狮山镇",
        "rev_count": 5,
        "avg_rate": 4.5
      }
    },
    {
      "type": "Feature",
      "geometry": {
        "type": "Point",
        "coordinates": [
          112.982834,
          23.090166
        ]
      },
      "properties": {
        "id": "B02F50X8WM",
        "name": "小塘公园",
        "town": "狮山镇",
        "rev_count": 10,
        "avg_rate": 0
      }
    },
    {
      "type": "Feature",
      "geometry": {
        "type": "Point",
        "coordinates": [
          113.147827,
          23.109498
        ]
      },
      "properties": {
        "id": "B0FFG2ERMT",
        "name": "九龙公园",
        "town": "里水镇",
        "rev_count": 24,
        "avg_rate": 4.6
      }
    },
    {
      "type": "Feature",
      "geometry": {
        "type": "Point",
        "coordinates": [
          113.239334,
          23.015086
        ]
      },
      "properties": {
        "id": "B0FFGI15WQ",
        "name": "文翰湖公园",
        "town": "桂城街道",
        "rev_count": 10,
        "avg_rate": 4.6
      }
    },
    {
      "type": "Feature",
      "geometry": {
        "type": "Point",
        "coordinates": [
          113.209412,
          23.037355
        ]
      },
      "properties": {
        "id": "B02F5079WX",
        "name": "桂城儿童公园",
        "town": "桂城街道",
        "rev_count": 27,
        "avg_rate": 4.7
      }
    },
    {
      "type": "Feature",
      "geometry": {
        "type": "Point",
        "coordinates": [
          113.059408,
          23.069717
        ]
      },
      "properties": {
        "id": "B0FFF4FNIM",
        "name": "孝德湖公园",
        "town": "狮山镇",
        "rev_count": 7,
        "avg_rate": 4.6
      }
    },
    {
      "type": "Feature",
      "geometry": {
        "type": "Point",
        "coordinates": [
          113.227994,
          23.031471
        ]
      },
      "properties": {
        "id": "B02F50YS3U",
        "name": "三山森林公园",
        "town": "桂城街道",
        "rev_count": 129,
        "avg_rate": 4.6
      }
    },
    {
      "type": "Feature",
      "geometry": {
        "type": "Point",
        "coordinates": [
          113.161808,
          23.180423
        ]
      },
      "properties": {
        "id": "B02F508S6H",
        "name": "河村公园",
        "town": "里水镇",
        "rev_count": 4,
        "avg_rate": 0
      }
    },
    {
      "type": "Feature",
      "geometry": {
        "type": "Point",
        "coordinates": [
          113.147039,
          23.069885
        ]
      },
      "properties": {
        "id": "B0FFIUK5ZQ",
        "name": "千灯湖公园北区",
        "town": "桂城街道",
        "rev_count": 11,
        "avg_rate": 4.5
      }
    },
    {
      "type": "Feature",
      "geometry": {
        "type": "Point",
        "coordinates": [
          112.96723,
          22.929192
        ]
      },
      "properties": {
        "id": "B0FFHJ45NL",
        "name": "天湖公园",
        "town": "西樵镇",
        "rev_count": 72,
        "avg_rate": 4.2
      }
    },
    {
      "type": "Feature",
      "geometry": {
        "type": "Point",
        "coordinates": [
          113.196447,
          23.039077
        ]
      },
      "properties": {
        "id": "B02F50WJ4R",
        "name": "映月湖公园",
        "town": "桂城街道",
        "rev_count": 11,
        "avg_rate": 4.4
      }
    },
    {
      "type": "Feature",
      "geometry": {
        "type": "Point",
        "coordinates": [
          112.957817,
          22.936726
        ]
      },
      "properties": {
        "id": "B0FFFV3BG0",
        "name": "听音广场",
        "town": "西樵镇",
        "rev_count": 11,
        "avg_rate": 4.3
      }
    },
    {
      "type": "Feature",
      "geometry": {
        "type": "Point",
        "coordinates": [
          113.192686,
          23.12078
        ]
      },
      "properties": {
        "id": "B0FFFH2PSL",
        "name": "黄岐公园",
        "town": "大沥镇",
        "rev_count": 22,
        "avg_rate": 4.4
      }
    },
    {
      "type": "Feature",
      "geometry": {
        "type": "Point",
        "coordinates": [
          113.166044,
          23.194936
        ]
      },
      "properties": {
        "id": "B02F508NQH",
        "name": "沿江公园",
        "town": "里水镇",
        "rev_count": 10,
        "avg_rate": 0
      }
    },
    {
      "type": "Feature",
      "geometry": {
        "type": "Point",
        "coordinates": [
          113.149032,
          23.151143
        ]
      },
      "properties": {
        "id": "B0FFKUREHD",
        "name": "展旗峰生态公园",
        "town": "里水镇",
        "rev_count": 11,
        "avg_rate": 4.6
      }
    },
    {
      "type": "Feature",
      "geometry": {
        "type": "Point",
        "coordinates": [
          112.96519,
          23.08136
        ]
      },
      "properties": {
        "id": "B02F503PVG",
        "name": "南海湿地主题公园",
        "town": "狮山镇",
        "rev_count": 21,
        "avg_rate": 4.2
      }
    },
    {
      "type": "Feature",
      "geometry": {
        "type": "Point",
        "coordinates": [
          113.179534,
          23.172752
        ]
      },
      "properties": {
        "id": "B02F50WIYO",
        "name": "水口公园",
        "town": "里水镇",
        "rev_count": 6,
        "avg_rate": 0
      }
    },
    {
      "type": "Feature",
      "geometry": {
        "type": "Point",
        "coordinates": [
          112.980287,
          22.88386
        ]
      },
      "properties": {
        "id": "B02F507706",
        "name": "朝山公园",
        "town": "丹灶镇",
        "rev_count": 71,
        "avg_rate": 0
      }
    },
    {
      "type": "Feature",
      "geometry": {
        "type": "Point",
        "coordinates": [
          113.243563,
          23.021445
        ]
      },
      "properties": {
        "id": "B0FFLQE8AB",
        "name": "高铁公园",
        "town": "桂城街道",
        "rev_count": 2,
        "avg_rate": 4.3
      }
    },
    {
      "type": "Feature",
      "geometry": {
        "type": "Point",
        "coordinates": [
          113.11783,
          23.120049
        ]
      },
      "properties": {
        "id": "B02F507C6D",
        "name": "邓西公园",
        "town": "大沥镇",
        "rev_count": 10,
        "avg_rate": 0
      }
    },
    {
      "type": "Feature",
      "geometry": {
        "type": "Point",
        "coordinates": [
          113.200189,
          23.013721
        ]
      },
      "properties": {
        "id": "B02F50UND7",
        "name": "平南公园",
        "town": "桂城街道",
        "rev_count": 1,
        "avg_rate": 0
      }
    },
    {
      "type": "Feature",
      "geometry": {
        "type": "Point",
        "coordinates": [
          113.116327,
          23.11227
        ]
      },
      "properties": {
        "id": "B02F503CBT",
        "name": "凤东公园",
        "town": "大沥镇",
        "rev_count": 10,
        "avg_rate": 0
      }
    },
    {
      "type": "Feature",
      "geometry": {
        "type": "Point",
        "coordinates": [
          113.199386,
          23.125777
        ]
      },
      "properties": {
        "id": "B02F50UENU",
        "name": "沙溪公园",
        "town": "里水镇",
        "rev_count": 18,
        "avg_rate": 4.2
      }
    },
    {
      "type": "Feature",
      "geometry": {
        "type": "Point",
        "coordinates": [
          113.125757,
          23.114148
        ]
      },
      "properties": {
        "id": "B02F504ZUG",
        "name": "沥城公园",
        "town": "里水镇",
        "rev_count": 10,
        "avg_rate": 0
      }
    },
    {
      "type": "Feature",
      "geometry": {
        "type": "Point",
        "coordinates": [
          113.145818,
          23.022913
        ]
      },
      "properties": {
        "id": "B02F501Q4Z",
        "name": "南海文化公园",
        "town": "桂城街道",
        "rev_count": 10,
        "avg_rate": 0
      }
    },
    {
      "type": "Feature",
      "geometry": {
        "type": "Point",
        "coordinates": [
          113.166353,
          23.144604
        ]
      },
      "properties": {
        "id": "B02F507H3D",
        "name": "沙涌公园",
        "town": "里水镇",
        "rev_count": 10,
        "avg_rate": 0
      }
    },
    {
      "type": "Feature",
      "geometry": {
        "type": "Point",
        "coordinates": [
          113.163804,
          23.018378
        ]
      },
      "properties": {
        "id": "B02F508PZ5",
        "name": "怡海公园",
        "town": "桂城街道",
        "rev_count": 14,
        "avg_rate": 4.2
      }
    },
    {
      "type": "Feature",
      "geometry": {
        "type": "Point",
        "coordinates": [
          113.128989,
          23.251181
        ]
      },
      "properties": {
        "id": "B02F507CO9",
        "name": "和顺公园",
        "town": "里水镇",
        "rev_count": 1,
        "avg_rate": 0
      }
    },
    {
      "type": "Feature",
      "geometry": {
        "type": "Point",
        "coordinates": [
          113.022858,
          22.919068
        ]
      },
      "properties": {
        "id": "B02F5076IN",
        "name": "华光公园",
        "town": "丹灶镇",
        "rev_count": 22,
        "avg_rate": 0
      }
    },
    {
      "type": "Feature",
      "geometry": {
        "type": "Point",
        "coordinates": [
          113.163942,
          23.081394
        ]
      },
      "properties": {
        "id": "B02F506168",
        "name": "新桂公园",
        "town": "大沥镇",
        "rev_count": 10,
        "avg_rate": 0
      }
    },
    {
      "type": "Feature",
      "geometry": {
        "type": "Point",
        "coordinates": [
          113.017758,
          22.833102
        ]
      },
      "properties": {
        "id": "B0FFG4RUQU",
        "name": "吴家大院",
        "town": "九江镇",
        "rev_count": 21,
        "avg_rate": 4.3
      }
    },
    {
      "type": "Feature",
      "geometry": {
        "type": "Point",
        "coordinates": [
          113.103899,
          23.183076
        ]
      },
      "properties": {
        "id": "B0FFG4B8C9",
        "name": "南国桃园",
        "town": "大沥镇",
        "rev_count": 14,
        "avg_rate": 4.7
      }
    },
    {
      "type": "Feature",
      "geometry": {
        "type": "Point",
        "coordinates": [
          113.108714,
          23.175651
        ]
      },
      "properties": {
        "id": "B0FFG0YUHE",
        "name": "南海观音寺",
        "town": "大沥镇",
        "rev_count": 32,
        "avg_rate": 4.7
      }
    },
    {
      "type": "Feature",
      "geometry": {
        "type": "Point",
        "coordinates": [
          112.8746,
          22.851696
        ]
      },
      "properties": {
        "id": "B02F50YH2H",
        "name": "南海湾森林生态园",
        "town": "西樵镇",
        "rev_count": 200,
        "avg_rate": 4.5
      }
    },
    {
      "type": "Feature",
      "geometry": {
        "type": "Point",
        "coordinates": [
          113.092699,
          23.063952
        ]
      },
      "properties": {
        "id": "B02F50UTH5",
        "name": "叶问宗师馆",
        "town": "狮山镇",
        "rev_count": 11,
        "avg_rate": 4.3
      }
    },
    {
      "type": "Feature",
      "geometry": {
        "type": "Point",
        "coordinates": [
          112.962325,
          22.933011
        ]
      },
      "properties": {
        "id": "B02F5077T5",
        "name": "白云洞风景区",
        "town": "西樵镇",
        "rev_count": 14,
        "avg_rate": 0
      }
    },
    {
      "type": "Feature",
      "geometry": {
        "type": "Point",
        "coordinates": [
          112.976074,
          22.908475
        ]
      },
      "properties": {
        "id": "B02F5076F0",
        "name": "西樵山风景名胜区",
        "town": "西樵镇",
        "rev_count": 106,
        "avg_rate": 4.7
      }
    },
    {
      "type": "Feature",
      "geometry": {
        "type": "Point",
        "coordinates": [
          113.146094,
          23.05361
        ]
      },
      "properties": {
        "id": "B02F506TYO",
        "name": "千灯湖公园",
        "town": "桂城街道",
        "rev_count": 86,
        "avg_rate": 4.7
      }
    },
    {
      "type": "Feature",
      "geometry": {
        "type": "Point",
        "coordinates": [
          113.10825,
          23.186927
        ]
      },
      "properties": {
        "id": "B02F503R4G",
        "name": "中央电视台南海影视城",
        "town": "狮山镇",
        "rev_count": 205,
        "avg_rate": 4.6
      }
    },
    {
      "type": "Feature",
      "geometry": {
        "type": "Point",
        "coordinates": [
          113.191867,
          23.026327
        ]
      },
      "properties": {
        "id": "B0FFHRPUYH",
        "name": "观音庙",
        "town": "桂城街道",
        "rev_count": 4,
        "avg_rate": 3.87
      }
    },
    {
      "type": "Feature",
      "geometry": {
        "type": "Point",
        "coordinates": [
          113.080252,
          23.180045
        ]
      },
      "properties": {
        "id": "B0FFH42HYC",
        "name": "南海神庙",
        "town": "狮山镇",
        "rev_count": 11,
        "avg_rate": 4.0
      }
    },
    {
      "type": "Feature",
      "geometry": {
        "type": "Point",
        "coordinates": [
          112.964449,
          22.933622
        ]
      },
      "properties": {
        "id": "B0FFG2AME7",
        "name": "西樵山风景名胜区-观音庙",
        "town": "西樵镇",
        "rev_count": 2,
        "avg_rate": 4.2
      }
    },
    {
      "type": "Feature",
      "geometry": {
        "type": "Point",
        "coordinates": [
          113.201118,
          23.201747
        ]
      },
      "properties": {
        "id": "B02F50WJ53",
        "name": "西华寺",
        "town": "里水镇",
        "rev_count": 2,
        "avg_rate": 4.3
      }
    },
    {
      "type": "Feature",
      "geometry": {
        "type": "Point",
        "coordinates": [
          113.146747,
          23.131128
        ]
      },
      "properties": {
        "id": "B0FFH4AQI7",
        "name": "陈氏宗祠",
        "town": "里水镇",
        "rev_count": 8,
        "avg_rate": 3.12
      }
    },
    {
      "type": "Feature",
      "geometry": {
        "type": "Point",
        "coordinates": [
          113.196227,
          23.190165
        ]
      },
      "properties": {
        "id": "B0FFH3XXY4",
        "name": "陈氏大宗祠",
        "town": "里水镇",
        "rev_count": 2,
        "avg_rate": 4.0
      }
    },
    {
      "type": "Feature",
      "geometry": {
        "type": "Point",
        "coordinates": [
          113.021404,
          23.062956
        ]
      },
      "properties": {
        "id": "B0FFG3QKJB",
        "name": "黄氏大宗祠",
        "town": "狮山镇",
        "rev_count": 11,
        "avg_rate": 3.6
      }
    },
    {
      "type": "Feature",
      "geometry": {
        "type": "Point",
        "coordinates": [
          113.184026,
          23.080738
        ]
      },
      "properties": {
        "id": "B0FFG24UH1",
        "name": "基督教盐步堂",
        "town": "大沥镇",
        "rev_count": 7,
        "avg_rate": 4.3
      }
    },
    {
      "type": "Feature",
      "geometry": {
        "type": "Point",
        "coordinates": [
          113.026582,
          22.812498
        ]
      },
      "properties": {
        "id": "B02F508KA7",
        "name": "九江双蒸博物馆",
        "town": "九江镇",
        "rev_count": 11,
        "avg_rate": 4.4
      }
    },
    {
      "type": "Feature",
      "geometry": {
        "type": "Point",
        "coordinates": [
          112.977738,
          22.907559
        ]
      },
      "properties": {
        "id": "B0FFF3NK66",
        "name": "南海博物馆",
        "town": "西樵镇",
        "rev_count": 60,
        "avg_rate": 4.4
      }
    },
    {
      "type": "Feature",
      "geometry": {
        "type": "Point",
        "coordinates": [
          113.145968,
          23.049718
        ]
      },
      "properties": {
        "id": "B0FFIR4D6W",
        "name": "广东大观博物馆",
        "town": "桂城街道",
        "rev_count": 10,
        "avg_rate": 0
      }
    },
    {
      "type": "Feature",
      "geometry": {
        "type": "Point",
        "coordinates": [
          113.148703,
          23.064166
        ]
      },
      "properties": {
        "id": "B0JGYHX5I0",
        "name": "佛山市岭南金融博物馆(新馆)",
        "town": "桂城街道",
        "rev_count": 16,
        "avg_rate": 0
      }
    },
    {
      "type": "Feature",
      "geometry": {
        "type": "Point",
        "coordinates": [
          112.957381,
          22.942898
        ]
      },
      "properties": {
        "id": "B0KRMZRLQY",
        "name": "佛山活体昆虫博物馆",
        "town": "西樵镇",
        "rev_count": 9,
        "avg_rate": 4.3
      }
    },
    {
      "type": "Feature",
      "geometry": {
        "type": "Point",
        "coordinates": [
          112.902309,
          23.021688
        ]
      },
      "properties": {
        "id": "B0FFIVH0A1",
        "name": "康有为博物馆",
        "town": "丹灶镇",
        "rev_count": 2,
        "avg_rate": 4.1
      }
    },
    {
      "type": "Feature",
      "geometry": {
        "type": "Point",
        "coordinates": [
          113.128685,
          23.069166
        ]
      },
      "properties": {
        "id": "B0I1G70ATO",
        "name": "古董老爷车博物馆",
        "town": "桂城街道",
        "rev_count": 10,
        "avg_rate": 0
      }
    },
    {
      "type": "Feature",
      "geometry": {
        "type": "Point",
        "coordinates": [
          112.956807,
          22.936696
        ]
      },
      "properties": {
        "id": "B0K14AWT1B",
        "name": "西樵山美术馆(有为馆)",
        "town": "西樵镇",
        "rev_count": 5,
        "avg_rate": 0
      }
    },
    {
      "type": "Feature",
      "geometry": {
        "type": "Point",
        "coordinates": [
          113.144657,
          23.109703
        ]
      },
      "properties": {
        "id": "B0FFM9MAH2",
        "name": "南海国际会议中心",
        "town": "里水镇",
        "rev_count": 12,
        "avg_rate": 0
      }
    },
    {
      "type": "Feature",
      "geometry": {
        "type": "Point",
        "coordinates": [
          112.95997,
          22.934058
        ]
      },
      "properties": {
        "id": "B0FFKZDQA6",
        "name": "樵山文化中心",
        "town": "西樵镇",
        "rev_count": 1,
        "avg_rate": 0
      }
    },
    {
      "type": "Feature",
      "geometry": {
        "type": "Point",
        "coordinates": [
          113.156725,
          23.043275
        ]
      },
      "properties": {
        "id": "B0GKU5HILM",
        "name": "无界艺术馆",
        "town": "桂城街道",
        "rev_count": 6,
        "avg_rate": 0
      }
    },
    {
      "type": "Feature",
      "geometry": {
        "type": "Point",
        "coordinates": [
          113.145798,
          23.025604
        ]
      },
      "properties": {
        "id": "B0FFGR7SES",
        "name": "南新美术馆",
        "town": "桂城街道",
        "rev_count": 4,
        "avg_rate": 0
      }
    },
    {
      "type": "Feature",
      "geometry": {
        "type": "Point",
        "coordinates": [
          113.187381,
          23.033381
        ]
      },
      "properties": {
        "id": "B0JU576YWA",
        "name": "映·美术馆",
        "town": "桂城街道",
        "rev_count": 19,
        "avg_rate": 0
      }
    },
    {
      "type": "Feature",
      "geometry": {
        "type": "Point",
        "coordinates": [
          113.143379,
          23.053251
        ]
      },
      "properties": {
        "id": "B0LKBMSFQ7",
        "name": "佛山市南海区图书馆",
        "town": "桂城街道",
        "rev_count": 34,
        "avg_rate": 0
      }
    },
    {
      "type": "Feature",
      "geometry": {
        "type": "Point",
        "coordinates": [
          112.982602,
          23.089445
        ]
      },
      "properties": {
        "id": "B02F5078UY",
        "name": "狮山图书馆",
        "town": "狮山镇",
        "rev_count": 10,
        "avg_rate": 0
      }
    },
    {
      "type": "Feature",
      "geometry": {
        "type": "Point",
        "coordinates": [
          113.033048,
          23.161598
        ]
      },
      "properties": {
        "id": "B02F50XHJX",
        "name": "广东轻工职业技术学院(南海校区北区)图书馆",
        "town": "狮山镇",
        "rev_count": 10,
        "avg_rate": 0
      }
    },
    {
      "type": "Feature",
      "geometry": {
        "type": "Point",
        "coordinates": [
          113.026773,
          23.146194
        ]
      },
      "properties": {
        "id": "B02F50UZCU",
        "name": "华南师范大学(佛山校区南海校园)图书馆",
        "town": "狮山镇",
        "rev_count": 3,
        "avg_rate": 0
      }
    },
    {
      "type": "Feature",
      "geometry": {
        "type": "Point",
        "coordinates": [
          113.139431,
          23.082175
        ]
      },
      "properties": {
        "id": "B0HR4SXR8R",
        "name": "勒东图书馆",
        "town": "大沥镇",
        "rev_count": 10,
        "avg_rate": 0
      }
    },
    {
      "type": "Feature",
      "geometry": {
        "type": "Point",
        "coordinates": [
          113.140106,
          23.030084
        ]
      },
      "properties": {
        "id": "B02F5076HS",
        "name": "南海科学馆",
        "town": "桂城街道",
        "rev_count": 2,
        "avg_rate": 4.3
      }
    },
    {
      "type": "Feature",
      "geometry": {
        "type": "Point",
        "coordinates": [
          113.053899,
          23.140435
        ]
      },
      "properties": {
        "id": "B0FFI7SIX5",
        "name": "佛山大学(仙溪校区北区)",
        "town": "狮山镇",
        "rev_count": 20,
        "avg_rate": 0
      }
    },
    {
      "type": "Feature",
      "geometry": {
        "type": "Point",
        "coordinates": [
          113.149473,
          23.055847
        ]
      },
      "properties": {
        "id": "B0FFFAQ2KJ",
        "name": "汇丰银行(佛山分行)",
        "town": "桂城街道",
        "rev_count": 10,
        "avg_rate": 0
      }
    },
    {
      "type": "Feature",
      "geometry": {
        "type": "Point",
        "coordinates": [
          113.008733,
          23.11687
        ]
      },
      "properties": {
        "id": "B0HGV5Q8L6",
        "name": "南海体育中心",
        "town": "狮山镇",
        "rev_count": 3,
        "avg_rate": 4.8
      }
    },
    {
      "type": "Feature",
      "geometry": {
        "type": "Point",
        "coordinates": [
          113.141117,
          23.047486
        ]
      },
      "properties": {
        "id": "B02F5076GC",
        "name": "南海体育馆",
        "town": "桂城街道",
        "rev_count": 6,
        "avg_rate": 4.7
      }
    },
    {
      "type": "Feature",
      "geometry": {
        "type": "Point",
        "coordinates": [
          113.156366,
          23.073309
        ]
      },
      "properties": {
        "id": "B0KR3U1J41",
        "name": "佛山千灯湖音乐秀场",
        "town": "桂城街道",
        "rev_count": 1,
        "avg_rate": 0
      }
    },
    {
      "type": "Feature",
      "geometry": {
        "type": "Point",
        "coordinates": [
          113.106062,
          23.112403
        ]
      },
      "properties": {
        "id": "B0LA2ULNM1",
        "name": "南海鹿尔花园",
        "town": "大沥镇",
        "rev_count": 10,
        "avg_rate": 4.7
      }
    },
    {
      "type": "Feature",
      "geometry": {
        "type": "Point",
        "coordinates": [
          112.973594,
          22.929661
        ]
      },
      "properties": {
        "id": "B0J2B1UNZC",
        "name": "西樵山森吧飞越树上探险乐园",
        "town": "西樵镇",
        "rev_count": 11,
        "avg_rate": 4.5
      }
    },
    {
      "type": "Feature",
      "geometry": {
        "type": "Point",
        "coordinates": [
          113.007754,
          23.115816
        ]
      },
      "properties": {
        "id": "B0H0J7X2FW",
        "name": "南海区体育中心体育场",
        "town": "狮山镇",
        "rev_count": 7,
        "avg_rate": 4.7
      }
    },
    {
      "type": "Feature",
      "geometry": {
        "type": "Point",
        "coordinates": [
          113.096736,
          23.187074
        ]
      },
      "properties": {
        "id": "B02F506TW0",
        "name": "桃园高尔夫会所",
        "town": "大沥镇",
        "rev_count": 1,
        "avg_rate": 0
      }
    },
    {
      "type": "Feature",
      "geometry": {
        "type": "Point",
        "coordinates": [
          113.147258,
          23.109479
        ]
      },
      "properties": {
        "id": "B0L65SO443",
        "name": "九龙Park欢乐世界",
        "town": "大沥镇",
        "rev_count": 2,
        "avg_rate": 4.6
      }
    },
    {
      "type": "Feature",
      "geometry": {
        "type": "Point",
        "coordinates": [
          112.891372,
          23.021509
        ]
      },
      "properties": {
        "id": "B0H06HFNWL",
        "name": "耕山小寨",
        "town": "丹灶镇",
        "rev_count": 17,
        "avg_rate": 0
      }
    },
    {
      "type": "Feature",
      "geometry": {
        "type": "Point",
        "coordinates": [
          112.945135,
          22.923938
        ]
      },
      "properties": {
        "id": "B02F501SVF",
        "name": "黄飞鸿狮艺武术馆",
        "town": "西樵镇",
        "rev_count": 42,
        "avg_rate": 4.5
      }
    },
    {
      "type": "Feature",
      "geometry": {
        "type": "Point",
        "coordinates": [
          113.174149,
          23.046413
        ]
      },
      "properties": {
        "id": "B0H0J7XPQC",
        "name": "夏漖粮园·喜文化创意基地",
        "town": "桂城街道",
        "rev_count": 10,
        "avg_rate": 0
      }
    },
    {
      "type": "Feature",
      "geometry": {
        "type": "Point",
        "coordinates": [
          113.052089,
          23.096359
        ]
      },
      "properties": {
        "id": "B02F503CYH",
        "name": "佛山高尔夫球会",
        "town": "狮山镇",
        "rev_count": 6,
        "avg_rate": 4.6
      }
    },
    {
      "type": "Feature",
      "geometry": {
        "type": "Point",
        "coordinates": [
          113.144766,
          23.110977
        ]
      },
      "properties": {
        "id": "B0IRYUBYVX",
        "name": "多元宝贝世界(龙汇店)",
        "town": "大沥镇",
        "rev_count": 2,
        "avg_rate": 4.5
      }
    },
    {
      "type": "Feature",
      "geometry": {
        "type": "Point",
        "coordinates": [
          113.154201,
          23.069148
        ]
      },
      "properties": {
        "id": "B0L36Z9RTE",
        "name": "爆笑虫子城市主题乐园",
        "town": "桂城街道",
        "rev_count": 1,
        "avg_rate": 0
      }
    },
    {
      "type": "Feature",
      "geometry": {
        "type": "Point",
        "coordinates": [
          113.127016,
          23.068857
        ]
      },
      "properties": {
        "id": "B0JKBCNVVK",
        "name": "大板牙主题乐园",
        "town": "桂城街道",
        "rev_count": 2,
        "avg_rate": 4.4
      }
    },
    {
      "type": "Feature",
      "geometry": {
        "type": "Point",
        "coordinates": [
          113.145574,
          23.047157
        ]
      },
      "properties": {
        "id": "B0J0GRAL8G",
        "name": "开心麻花·花花世界佛山",
        "town": "桂城街道",
        "rev_count": 2,
        "avg_rate": 0
      }
    },
    {
      "type": "Feature",
      "geometry": {
        "type": "Point",
        "coordinates": [
          113.160155,
          23.022605
        ]
      },
      "properties": {
        "id": "B0JRKMVGXF",
        "name": "广东省非物质文化遗产佛山咏春拳东二义咏堂",
        "town": "桂城街道",
        "rev_count": 2,
        "avg_rate": 3.1
      }
    },
    {
      "type": "Feature",
      "geometry": {
        "type": "Point",
        "coordinates": [
          113.143625,
          23.114647
        ]
      },
      "properties": {
        "id": "B0IUD5JAZE",
        "name": "牛牛西厨(大沥永旺梦乐城店)",
        "town": "大沥镇",
        "rev_count": 1,
        "avg_rate": 0
      }
    },
    {
      "type": "Feature",
      "geometry": {
        "type": "Point",
        "coordinates": [
          112.935246,
          23.046177
        ]
      },
      "properties": {
        "id": "B0FFKCIQYL",
        "name": "沙水村古村落",
        "town": "丹灶镇",
        "rev_count": 2,
        "avg_rate": 0
      }
    },
    {
      "type": "Feature",
      "geometry": {
        "type": "Point",
        "coordinates": [
          112.959574,
          22.872088
        ]
      },
      "properties": {
        "id": "B0FFJYGJTV",
        "name": "烟桥古村",
        "town": "九江镇",
        "rev_count": 10,
        "avg_rate": 4.4
      }
    },
    {
      "type": "Feature",
      "geometry": {
        "type": "Point",
        "coordinates": [
          113.131515,
          23.153857
        ]
      },
      "properties": {
        "id": "B0LGTX12VB",
        "name": "梁氏大宗祠",
        "town": "里水镇",
        "rev_count": 3,
        "avg_rate": 3.45
      }
    },
    {
      "type": "Feature",
      "geometry": {
        "type": "Point",
        "coordinates": [
          113.005008,
          23.16331
        ]
      },
      "properties": {
        "id": "B0LG0L6MZH",
        "name": "北山村罗氏宗祠",
        "town": "狮山镇",
        "rev_count": 6,
        "avg_rate": 0
      }
    },
    {
      "type": "Feature",
      "geometry": {
        "type": "Point",
        "coordinates": [
          112.930983,
          22.991846
        ]
      },
      "properties": {
        "id": "B0LAP7F790",
        "name": "霍氏宗祠",
        "town": "丹灶镇",
        "rev_count": 2,
        "avg_rate": 2.8
      }
    },
    {
      "type": "Feature",
      "geometry": {
        "type": "Point",
        "coordinates": [
          112.977185,
          22.929907
        ]
      },
      "properties": {
        "id": "B02F50YSSQ",
        "name": "西樵山宝峰寺",
        "town": "西樵镇",
        "rev_count": 3,
        "avg_rate": 4.4
      }
    },
    {
      "type": "Feature",
      "geometry": {
        "type": "Point",
        "coordinates": [
          113.126972,
          23.09602
        ]
      },
      "properties": {
        "id": "B0FFFEOUOF",
        "name": "财神庙",
        "town": "大沥镇",
        "rev_count": 10,
        "avg_rate": 0
      }
    },
    {
      "type": "Feature",
      "geometry": {
        "type": "Point",
        "coordinates": [
          112.990348,
          22.823562
        ]
      },
      "properties": {
        "id": "B0K229G3RK",
        "name": "龙母庙",
        "town": "丹灶镇",
        "rev_count": 20,
        "avg_rate": 0
      }
    },
    {
      "type": "Feature",
      "geometry": {
        "type": "Point",
        "coordinates": [
          113.178345,
          23.1238
        ]
      },
      "properties": {
        "id": "B0JBOHMTUC",
        "name": "观音公园",
        "town": "大沥镇",
        "rev_count": 10,
        "avg_rate": 0
      }
    },
    {
      "type": "Feature",
      "geometry": {
        "type": "Point",
        "coordinates": [
          113.18722,
          23.041628
        ]
      },
      "properties": {
        "id": "B0LB1AYOYQ",
        "name": "孔溪天后三元古庙",
        "town": "桂城街道",
        "rev_count": 1,
        "avg_rate": 0
      }
    },
    {
      "type": "Feature",
      "geometry": {
        "type": "Point",
        "coordinates": [
          112.971329,
          22.907987
        ]
      },
      "properties": {
        "id": "B0K2XZ9QGF",
        "name": "少林寺",
        "town": "西樵镇",
        "rev_count": 2,
        "avg_rate": 4.0
      }
    },
    {
      "type": "Feature",
      "geometry": {
        "type": "Point",
        "coordinates": [
          112.974921,
          23.173483
        ]
      },
      "properties": {
        "id": "B02F50777S",
        "name": "邓氏纪念馆",
        "town": "狮山镇",
        "rev_count": 1,
        "avg_rate": 0
      }
    },
    {
      "type": "Feature",
      "geometry": {
        "type": "Point",
        "coordinates": [
          113.14645,
          23.022247
        ]
      },
      "properties": {
        "id": "B02F501IFU",
        "name": "佛山市南海区文化馆",
        "town": "桂城街道",
        "rev_count": 14,
        "avg_rate": 0
      }
    },
    {
      "type": "Feature",
      "geometry": {
        "type": "Point",
        "coordinates": [
          112.960698,
          22.934372
        ]
      },
      "properties": {
        "id": "B0HUVZ2GKT",
        "name": "樵山文化中心C区",
        "town": "西樵镇",
        "rev_count": 1,
        "avg_rate": 0
      }
    },
    {
      "type": "Feature",
      "geometry": {
        "type": "Point",
        "coordinates": [
          112.995354,
          22.8425
        ]
      },
      "properties": {
        "id": "B0J0PU50KO",
        "name": "南海区工人文化宫",
        "town": "九江镇",
        "rev_count": 1,
        "avg_rate": 0
      }
    },
    {
      "type": "Feature",
      "geometry": {
        "type": "Point",
        "coordinates": [
          113.000148,
          22.869621
        ]
      },
      "properties": {
        "id": "B0LD3SFR5N",
        "name": "敦根水上龙舟乐园",
        "town": "丹灶镇",
        "rev_count": 2,
        "avg_rate": 3.3
      }
    },
    {
      "type": "Feature",
      "geometry": {
        "type": "Point",
        "coordinates": [
          113.12736,
          23.064402
        ]
      },
      "properties": {
        "id": "B0K0HZDEYH",
        "name": "佛山钲道咏春拳馆",
        "town": "桂城街道",
        "rev_count": 1,
        "avg_rate": 0
      }
    },
    {
      "type": "Feature",
      "geometry": {
        "type": "Point",
        "coordinates": [
          113.173975,
          23.159825
        ]
      },
      "properties": {
        "id": "B0J2OAKEHW",
        "name": "臻云书院",
        "town": "里水镇",
        "rev_count": 5,
        "avg_rate": 0
      }
    },
    {
      "type": "Feature",
      "geometry": {
        "type": "Point",
        "coordinates": [
          113.133749,
          23.045666
        ]
      },
      "properties": {
        "id": "B02F5016ZY",
        "name": "南海广场",
        "town": "桂城街道",
        "rev_count": 11,
        "avg_rate": 0
      }
    },
    {
      "type": "Feature",
      "geometry": {
        "type": "Point",
        "coordinates": [
          113.141115,
          23.024813
        ]
      },
      "properties": {
        "id": "B02F501IFU",
        "name": "南海文化馆",
        "town": "桂城街道",
        "rev_count": 14,
        "avg_rate": 0
      }
    },
    {
      "type": "Feature",
      "geometry": {
        "type": "Point",
        "coordinates": [
          113.140365,
          23.025498
        ]
      },
      "properties": {
        "id": "B02F501Q4Z",
        "name": "南海文化公园(装修中)",
        "town": "桂城街道",
        "rev_count": 10,
        "avg_rate": 0
      }
    },
    {
      "type": "Feature",
      "geometry": {
        "type": "Point",
        "coordinates": [
          113.117303,
          23.133995
        ]
      },
      "properties": {
        "id": "B02F503NA9",
        "name": "沥北中心公园",
        "town": "大沥镇",
        "rev_count": 10,
        "avg_rate": 0
      }
    },
    {
      "type": "Feature",
      "geometry": {
        "type": "Point",
        "coordinates": [
          113.140528,
          23.04872
        ]
      },
      "properties": {
        "id": "B02F505476",
        "name": "礌岗公园(北门)",
        "town": "桂城街道",
        "rev_count": 10,
        "avg_rate": 0
      }
    },
    {
      "type": "Feature",
      "geometry": {
        "type": "Point",
        "coordinates": [
          113.142081,
          23.053483
        ]
      },
      "properties": {
        "id": "B02F506TYO",
        "name": "千灯湖",
        "town": "桂城街道",
        "rev_count": 86,
        "avg_rate": 4.7
      }
    },
    {
      "type": "Feature",
      "geometry": {
        "type": "Point",
        "coordinates": [
          112.918763,
          22.958048
        ]
      },
      "properties": {
        "id": "B02F5076FP",
        "name": "大地公园",
        "town": "西樵镇",
        "rev_count": 10,
        "avg_rate": 0
      }
    },
    {
      "type": "Feature",
      "geometry": {
        "type": "Point",
        "coordinates": [
          113.144014,
          23.0226
        ]
      },
      "properties": {
        "id": "B02F5076I1",
        "name": "河岸公园",
        "town": "桂城街道",
        "rev_count": 10,
        "avg_rate": 0
      }
    },
    {
      "type": "Feature",
      "geometry": {
        "type": "Point",
        "coordinates": [
          112.872731,
          22.857182
        ]
      },
      "properties": {
        "id": "B02F5076NF",
        "name": "庆云洞",
        "town": "西樵镇",
        "rev_count": 9,
        "avg_rate": 0
      }
    },
    {
      "type": "Feature",
      "geometry": {
        "type": "Point",
        "coordinates": [
          112.970525,
          22.866984
        ]
      },
      "properties": {
        "id": "B02F5076NL",
        "name": "璜矶鹭鸟天堂",
        "town": "九江镇",
        "rev_count": 4,
        "avg_rate": 0
      }
    },
    {
      "type": "Feature",
      "geometry": {
        "type": "Point",
        "coordinates": [
          112.899166,
          23.023716
        ]
      },
      "properties": {
        "id": "B02F5076XZ",
        "name": "康有为故居(东南门)",
        "town": "丹灶镇",
        "rev_count": 32,
        "avg_rate": 4.82
      }
    },
    {
      "type": "Feature",
      "geometry": {
        "type": "Point",
        "coordinates": [
          113.148213,
          23.035364
        ]
      },
      "properties": {
        "id": "B02F5077H5",
        "name": "百花时代广场(桂澜中路)",
        "town": "桂城街道",
        "rev_count": 1,
        "avg_rate": 0
      }
    },
    {
      "type": "Feature",
      "geometry": {
        "type": "Point",
        "coordinates": [
          113.202311,
          23.026472
        ]
      },
      "properties": {
        "id": "B02F507872",
        "name": "中心广场(玉器街)",
        "town": "桂城街道",
        "rev_count": 11,
        "avg_rate": 0
      }
    },
    {
      "type": "Feature",
      "geometry": {
        "type": "Point",
        "coordinates": [
          113.204067,
          23.040045
        ]
      },
      "properties": {
        "id": "B02F5079WX",
        "name": "平洲公园(建设中)",
        "town": "桂城街道",
        "rev_count": 27,
        "avg_rate": 4.7
      }
    },
    {
      "type": "Feature",
      "geometry": {
        "type": "Point",
        "coordinates": [
          113.05352,
          23.232225
        ]
      },
      "properties": {
        "id": "B02F507O3B",
        "name": "南浦大桥",
        "town": "狮山镇",
        "rev_count": 1,
        "avg_rate": 0
      }
    },
    {
      "type": "Feature",
      "geometry": {
        "type": "Point",
        "coordinates": [
          113.135006,
          23.075531
        ]
      },
      "properties": {
        "id": "B02F507OCG",
        "name": "桂江大桥",
        "town": "桂城街道",
        "rev_count": 10,
        "avg_rate": 0
      }
    },
    {
      "type": "Feature",
      "geometry": {
        "type": "Point",
        "coordinates": [
          113.117097,
          23.114685
        ]
      },
      "properties": {
        "id": "B02F507PK8",
        "name": "大沥文化中心",
        "town": "大沥镇",
        "rev_count": 1,
        "avg_rate": 0
      }
    },
    {
      "type": "Feature",
      "geometry": {
        "type": "Point",
        "coordinates": [
          112.978399,
          22.951444
        ]
      },
      "properties": {
        "id": "B02F508GP5",
        "name": "新城广场(樵金公路)",
        "town": "西樵镇",
        "rev_count": 20,
        "avg_rate": 0
      }
    },
    {
      "type": "Feature",
      "geometry": {
        "type": "Point",
        "coordinates": [
          113.087208,
          23.066476
        ]
      },
      "properties": {
        "id": "B02F50UTH5",
        "name": "叶问纪念馆",
        "town": "大沥镇",
        "rev_count": 11,
        "avg_rate": 4.3
      }
    },
    {
      "type": "Feature",
      "geometry": {
        "type": "Point",
        "coordinates": [
          113.148941,
          23.039184
        ]
      },
      "properties": {
        "id": "B02F50VD3U",
        "name": "南海万科广场",
        "town": "桂城街道",
        "rev_count": 1,
        "avg_rate": 0
      }
    },
    {
      "type": "Feature",
      "geometry": {
        "type": "Point",
        "coordinates": [
          113.183553,
          23.11135
        ]
      },
      "properties": {
        "id": "B02F50WASN",
        "name": "友壹町寿司(嘉洲广场店)",
        "town": "里水镇",
        "rev_count": 1,
        "avg_rate": 0
      }
    },
    {
      "type": "Feature",
      "geometry": {
        "type": "Point",
        "coordinates": [
          113.128754,
          23.050932
        ]
      },
      "properties": {
        "id": "B02F50WAWE",
        "name": "萨莉亚意式餐厅(鸿大广场店)",
        "town": "桂城街道",
        "rev_count": 1,
        "avg_rate": 0
      }
    },
    {
      "type": "Feature",
      "geometry": {
        "type": "Point",
        "coordinates": [
          112.970179,
          22.945366
        ]
      },
      "properties": {
        "id": "B02F50WIZY",
        "name": "文明公园",
        "town": "西樵镇",
        "rev_count": 11,
        "avg_rate": 0
      }
    },
    {
      "type": "Feature",
      "geometry": {
        "type": "Point",
        "coordinates": [
          113.037977,
          22.830689
        ]
      },
      "properties": {
        "id": "B02F50WJ2A",
        "name": "大谷公园",
        "town": "丹灶镇",
        "rev_count": 1,
        "avg_rate": 0
      }
    },
    {
      "type": "Feature",
      "geometry": {
        "type": "Point",
        "coordinates": [
          112.981474,
          22.813056
        ]
      },
      "properties": {
        "id": "B02F50WYWN",
        "name": "海寿岛",
        "town": "九江镇",
        "rev_count": 3,
        "avg_rate": 0
      }
    },
    {
      "type": "Feature",
      "geometry": {
        "type": "Point",
        "coordinates": [
          113.163716,
          23.198192
        ]
      },
      "properties": {
        "id": "B02F50WYZN",
        "name": "桥南村公园",
        "town": "里水镇",
        "rev_count": 2,
        "avg_rate": 0
      }
    },
    {
      "type": "Feature",
      "geometry": {
        "type": "Point",
        "coordinates": [
          112.972008,
          22.932742
        ]
      },
      "properties": {
        "id": "B02F50YSSQ",
        "name": "宝峰寺",
        "town": "西樵镇",
        "rev_count": 3,
        "avg_rate": 4.4
      }
    },
    {
      "type": "Feature",
      "geometry": {
        "type": "Point",
        "coordinates": [
          112.915032,
          23.043338
        ]
      },
      "properties": {
        "id": "B02F511AS8",
        "name": "文化广场",
        "town": "丹灶镇",
        "rev_count": 8,
        "avg_rate": 0
      }
    },
    {
      "type": "Feature",
      "geometry": {
        "type": "Point",
        "coordinates": [
          113.000248,
          23.123862
        ]
      },
      "properties": {
        "id": "B0FFF0KPN3",
        "name": "和信广场",
        "town": "狮山镇",
        "rev_count": 2,
        "avg_rate": 0
      }
    },
    {
      "type": "Feature",
      "geometry": {
        "type": "Point",
        "coordinates": [
          113.14866,
          23.039152
        ]
      },
      "properties": {
        "id": "B0FFFEH3MR",
        "name": "东菊日本料理(南海万科广场)",
        "town": "桂城街道",
        "rev_count": 1,
        "avg_rate": 0
      }
    },
    {
      "type": "Feature",
      "geometry": {
        "type": "Point",
        "coordinates": [
          113.042057,
          23.076109
        ]
      },
      "properties": {
        "id": "B0FFFEOU36",
        "name": "长盈广场",
        "town": "狮山镇",
        "rev_count": 10,
        "avg_rate": 0
      }
    },
    {
      "type": "Feature",
      "geometry": {
        "type": "Point",
        "coordinates": [
          113.114213,
          23.282853
        ]
      },
      "properties": {
        "id": "B0FFFEOV26",
        "name": "九龙山森林公园",
        "town": "大沥镇",
        "rev_count": 8,
        "avg_rate": 0
      }
    },
    {
      "type": "Feature",
      "geometry": {
        "type": "Point",
        "coordinates": [
          113.135462,
          23.044762
        ]
      },
      "properties": {
        "id": "B0FFFFA3KD",
        "name": "星巴克(佛山悦万广场分店)",
        "town": "桂城街道",
        "rev_count": 1,
        "avg_rate": 0
      }
    },
    {
      "type": "Feature",
      "geometry": {
        "type": "Point",
        "coordinates": [
          113.186903,
          23.123449
        ]
      },
      "properties": {
        "id": "B0FFFH2PSL",
        "name": "黄岐公园(装修中)",
        "town": "大沥镇",
        "rev_count": 22,
        "avg_rate": 4.4
      }
    },
    {
      "type": "Feature",
      "geometry": {
        "type": "Point",
        "coordinates": [
          113.156667,
          23.034414
        ]
      },
      "properties": {
        "id": "B0FFFOTG30",
        "name": "彩虹桥",
        "town": "桂城街道",
        "rev_count": 1,
        "avg_rate": 0
      }
    },
    {
      "type": "Feature",
      "geometry": {
        "type": "Point",
        "coordinates": [
          112.968458,
          22.911054
        ]
      },
      "properties": {
        "id": "B0FFFOVW3H",
        "name": "西樵山国艺影视城",
        "town": "西樵镇",
        "rev_count": 54,
        "avg_rate": 0
      }
    },
    {
      "type": "Feature",
      "geometry": {
        "type": "Point",
        "coordinates": [
          112.975743,
          22.932326
        ]
      },
      "properties": {
        "id": "B0FFFWH2CH",
        "name": "摩崖石刻",
        "town": "西樵镇",
        "rev_count": 1,
        "avg_rate": 0
      }
    },
    {
      "type": "Feature",
      "geometry": {
        "type": "Point",
        "coordinates": [
          113.141134,
          23.117425
        ]
      },
      "properties": {
        "id": "B0FFFYPLAV",
        "name": "珑门广场",
        "town": "里水镇",
        "rev_count": 10,
        "avg_rate": 0
      }
    },
    {
      "type": "Feature",
      "geometry": {
        "type": "Point",
        "coordinates": [
          113.152249,
          23.066464
        ]
      },
      "properties": {
        "id": "B0FFG0DY2E",
        "name": "万达广场佛山南海店(6号门)",
        "town": "桂城街道",
        "rev_count": 8,
        "avg_rate": 0
      }
    },
    {
      "type": "Feature",
      "geometry": {
        "type": "Point",
        "coordinates": [
          113.103214,
          23.178132
        ]
      },
      "properties": {
        "id": "B0FFG0YUHE",
        "name": "南国桃园南海观音寺",
        "town": "大沥镇",
        "rev_count": 32,
        "avg_rate": 4.7
      }
    },
    {
      "type": "Feature",
      "geometry": {
        "type": "Point",
        "coordinates": [
          112.961043,
          22.933017
        ]
      },
      "properties": {
        "id": "B0FFG1QYZE",
        "name": "西樵山观光索道上站售票处",
        "town": "西樵镇",
        "rev_count": 1,
        "avg_rate": 0
      }
    },
    {
      "type": "Feature",
      "geometry": {
        "type": "Point",
        "coordinates": [
          113.187454,
          23.145324
        ]
      },
      "properties": {
        "id": "B0FFG2740J",
        "name": "丰泰广场",
        "town": "大沥镇",
        "rev_count": 1,
        "avg_rate": 0
      }
    },
    {
      "type": "Feature",
      "geometry": {
        "type": "Point",
        "coordinates": [
          112.959616,
          22.935719
        ]
      },
      "properties": {
        "id": "B0FFG279L5",
        "name": "坐看云起",
        "town": "西樵镇",
        "rev_count": 1,
        "avg_rate": 0
      }
    },
    {
      "type": "Feature",
      "geometry": {
        "type": "Point",
        "coordinates": [
          112.973396,
          22.933479
        ]
      },
      "properties": {
        "id": "B0FFG27S29",
        "name": "舍利塔",
        "town": "西樵镇",
        "rev_count": 1,
        "avg_rate": 0
      }
    },
    {
      "type": "Feature",
      "geometry": {
        "type": "Point",
        "coordinates": [
          112.971937,
          22.932516
        ]
      },
      "properties": {
        "id": "B0FFG27VUO",
        "name": "西樵山风景名胜区-南海观音文化苑",
        "town": "西樵镇",
        "rev_count": 5,
        "avg_rate": 0
      }
    },
    {
      "type": "Feature",
      "geometry": {
        "type": "Point",
        "coordinates": [
          112.959465,
          22.935093
        ]
      },
      "properties": {
        "id": "B0FFG2CLW7",
        "name": "一线天",
        "town": "西樵镇",
        "rev_count": 2,
        "avg_rate": 0
      }
    },
    {
      "type": "Feature",
      "geometry": {
        "type": "Point",
        "coordinates": [
          112.9608,
          23.076499
        ]
      },
      "properties": {
        "id": "B0FFG63FJW",
        "name": "广东南海金沙岛国家湿地公园",
        "town": "丹灶镇",
        "rev_count": 4,
        "avg_rate": 0
      }
    },
    {
      "type": "Feature",
      "geometry": {
        "type": "Point",
        "coordinates": [
          113.164329,
          23.262175
        ]
      },
      "properties": {
        "id": "B0FFG8XPXK",
        "name": "贤鲁岛",
        "town": "里水镇",
        "rev_count": 9,
        "avg_rate": 0
      }
    },
    {
      "type": "Feature",
      "geometry": {
        "type": "Point",
        "coordinates": [
          113.168936,
          22.998059
        ]
      },
      "properties": {
        "id": "B0FFGA0GMH",
        "name": "大雄宝殿",
        "town": "桂城街道",
        "rev_count": 3,
        "avg_rate": 0
      }
    },
    {
      "type": "Feature",
      "geometry": {
        "type": "Point",
        "coordinates": [
          112.972714,
          22.905599
        ]
      },
      "properties": {
        "id": "B0FFGA63MT",
        "name": "渔耕粤韵文化旅游园",
        "town": "西樵镇",
        "rev_count": 10,
        "avg_rate": 0
      }
    },
    {
      "type": "Feature",
      "geometry": {
        "type": "Point",
        "coordinates": [
          113.181442,
          23.15507
        ]
      },
      "properties": {
        "id": "B0FFGLP8I8",
        "name": "假日广场",
        "town": "里水镇",
        "rev_count": 1,
        "avg_rate": 0
      }
    },
    {
      "type": "Feature",
      "geometry": {
        "type": "Point",
        "coordinates": [
          112.876556,
          23.057729
        ]
      },
      "properties": {
        "id": "B0FFGM4O2F",
        "name": "仙湖度假区",
        "town": "狮山镇",
        "rev_count": 10,
        "avg_rate": 0
      }
    },
    {
      "type": "Feature",
      "geometry": {
        "type": "Point",
        "coordinates": [
          113.101089,
          23.190305
        ]
      },
      "properties": {
        "id": "B0FFGQ1NQM",
        "name": "水上游船",
        "town": "大沥镇",
        "rev_count": 1,
        "avg_rate": 0
      }
    },
    {
      "type": "Feature",
      "geometry": {
        "type": "Point",
        "coordinates": [
          113.164822,
          23.114716
        ]
      },
      "properties": {
        "id": "B0FFGVNGR6",
        "name": "东门公园",
        "town": "大沥镇",
        "rev_count": 10,
        "avg_rate": 0
      }
    },
    {
      "type": "Feature",
      "geometry": {
        "type": "Point",
        "coordinates": [
          113.172379,
          23.178939
        ]
      },
      "properties": {
        "id": "B0FFH22EBA",
        "name": "南海花卉博览园",
        "town": "里水镇",
        "rev_count": 2,
        "avg_rate": 0
      }
    },
    {
      "type": "Feature",
      "geometry": {
        "type": "Point",
        "coordinates": [
          113.142098,
          23.03776
        ]
      },
      "properties": {
        "id": "B0FFH2DI8F",
        "name": "南园",
        "town": "桂城街道",
        "rev_count": 1,
        "avg_rate": 0
      }
    },
    {
      "type": "Feature",
      "geometry": {
        "type": "Point",
        "coordinates": [
          113.108977,
          23.150114
        ]
      },
      "properties": {
        "id": "B0FFH3XV4E",
        "name": "周氏大宗祠",
        "town": "大沥镇",
        "rev_count": 2,
        "avg_rate": 0
      }
    },
    {
      "type": "Feature",
      "geometry": {
        "type": "Point",
        "coordinates": [
          113.11042,
          23.102386
        ]
      },
      "properties": {
        "id": "B0FFH42L7V",
        "name": "铁村牌坊",
        "town": "大沥镇",
        "rev_count": 1,
        "avg_rate": 0
      }
    },
    {
      "type": "Feature",
      "geometry": {
        "type": "Point",
        "coordinates": [
          113.194021,
          23.186435
        ]
      },
      "properties": {
        "id": "B0FFH49S2C",
        "name": "玉虚宫",
        "town": "里水镇",
        "rev_count": 10,
        "avg_rate": 0
      }
    },
    {
      "type": "Feature",
      "geometry": {
        "type": "Point",
        "coordinates": [
          113.000804,
          22.825513
        ]
      },
      "properties": {
        "id": "B0FFH989SN",
        "name": "九江镇望海观音寺",
        "town": "九江镇",
        "rev_count": 2,
        "avg_rate": 0
      }
    },
    {
      "type": "Feature",
      "geometry": {
        "type": "Point",
        "coordinates": [
          112.958687,
          22.936283
        ]
      },
      "properties": {
        "id": "B0FFHHJ5YR",
        "name": "枫林白塔",
        "town": "西樵镇",
        "rev_count": 1,
        "avg_rate": 0
      }
    },
    {
      "type": "Feature",
      "geometry": {
        "type": "Point",
        "coordinates": [
          112.965024,
          22.932507
        ]
      },
      "properties": {
        "id": "B0FFHJ45NL",
        "name": "西樵山风景名胜区-天湖公园",
        "town": "西樵镇",
        "rev_count": 72,
        "avg_rate": 4.2
      }
    },
    {
      "type": "Feature",
      "geometry": {
        "type": "Point",
        "coordinates": [
          113.208135,
          23.028847
        ]
      },
      "properties": {
        "id": "B0FFHOG7YC",
        "name": "新石村公园",
        "town": "桂城街道",
        "rev_count": 4,
        "avg_rate": 0
      }
    },
    {
      "type": "Feature",
      "geometry": {
        "type": "Point",
        "coordinates": [
          113.153661,
          23.066243
        ]
      },
      "properties": {
        "id": "B0FFHSYNVK",
        "name": "百果园(万达广场店)",
        "town": "桂城街道",
        "rev_count": 1,
        "avg_rate": 0
      }
    },
    {
      "type": "Feature",
      "geometry": {
        "type": "Point",
        "coordinates": [
          113.151948,
          23.199882
        ]
      },
      "properties": {
        "id": "B0FFHU71SQ",
        "name": "老爷车(新天地广场)",
        "town": "里水镇",
        "rev_count": 1,
        "avg_rate": 0
      }
    },
    {
      "type": "Feature",
      "geometry": {
        "type": "Point",
        "coordinates": [
          113.130876,
          23.111794
        ]
      },
      "properties": {
        "id": "B0FFHW9FTS",
        "name": "荔庄公园",
        "town": "里水镇",
        "rev_count": 7,
        "avg_rate": 0
      }
    },
    {
      "type": "Feature",
      "geometry": {
        "type": "Point",
        "coordinates": [
          112.932082,
          23.051207
        ]
      },
      "properties": {
        "id": "B0FFI30V9U",
        "name": "翰林湖农业公园",
        "town": "狮山镇",
        "rev_count": 10,
        "avg_rate": 0
      }
    },
    {
      "type": "Feature",
      "geometry": {
        "type": "Point",
        "coordinates": [
          113.183762,
          23.111019
        ]
      },
      "properties": {
        "id": "B0FFI918H0",
        "name": "卡多多卡朋西餐(嘉洲广场)",
        "town": "大沥镇",
        "rev_count": 1,
        "avg_rate": 0
      }
    },
    {
      "type": "Feature",
      "geometry": {
        "type": "Point",
        "coordinates": [
          113.234888,
          23.007979
        ]
      },
      "properties": {
        "id": "B0FFIFHDRB",
        "name": "三山花海乐田",
        "town": "桂城街道",
        "rev_count": 1,
        "avg_rate": 0
      }
    },
    {
      "type": "Feature",
      "geometry": {
        "type": "Point",
        "coordinates": [
          112.877046,
          23.057401
        ]
      },
      "properties": {
        "id": "B0FFIJSJRK",
        "name": "欢乐沙滩",
        "town": "丹灶镇",
        "rev_count": 1,
        "avg_rate": 0
      }
    },
    {
      "type": "Feature",
      "geometry": {
        "type": "Point",
        "coordinates": [
          113.140513,
          23.052291
        ]
      },
      "properties": {
        "id": "B0FFIR4D6W",
        "name": "大观博物馆",
        "town": "桂城街道",
        "rev_count": 10,
        "avg_rate": 0
      }
    },
    {
      "type": "Feature",
      "geometry": {
        "type": "Point",
        "coordinates": [
          113.095731,
          23.216114
        ]
      },
      "properties": {
        "id": "B0FFIWP83J",
        "name": "星湖公园",
        "town": "里水镇",
        "rev_count": 10,
        "avg_rate": 0
      }
    },
    {
      "type": "Feature",
      "geometry": {
        "type": "Point",
        "coordinates": [
          113.099865,
          23.189166
        ]
      },
      "properties": {
        "id": "B0FFIWPSPF",
        "name": "桃花湖",
        "town": "大沥镇",
        "rev_count": 10,
        "avg_rate": 0
      }
    },
    {
      "type": "Feature",
      "geometry": {
        "type": "Point",
        "coordinates": [
          112.981263,
          23.090689
        ]
      },
      "properties": {
        "id": "B0FFIXTC81",
        "name": "升平广场",
        "town": "狮山镇",
        "rev_count": 10,
        "avg_rate": 0
      }
    },
    {
      "type": "Feature",
      "geometry": {
        "type": "Point",
        "coordinates": [
          113.000758,
          23.123628
        ]
      },
      "properties": {
        "id": "B0FFJ29U41",
        "name": "咚咚欢乐世界(和信广场店)",
        "town": "狮山镇",
        "rev_count": 8,
        "avg_rate": 0
      }
    },
    {
      "type": "Feature",
      "geometry": {
        "type": "Point",
        "coordinates": [
          113.157412,
          23.193834
        ]
      },
      "properties": {
        "id": "B0FFJ2UYP8",
        "name": "梦里水乡景区",
        "town": "里水镇",
        "rev_count": 2,
        "avg_rate": 0
      }
    },
    {
      "type": "Feature",
      "geometry": {
        "type": "Point",
        "coordinates": [
          113.191851,
          23.142615
        ]
      },
      "properties": {
        "id": "B0FFJCCB1L",
        "name": "嘉乐奇儿童乐园(万达广场金沙洲店)",
        "town": "里水镇",
        "rev_count": 1,
        "avg_rate": 0
      }
    },
    {
      "type": "Feature",
      "geometry": {
        "type": "Point",
        "coordinates": [
          112.9574,
          22.941651
        ]
      },
      "properties": {
        "id": "B0FFKFVAG9",
        "name": "观心美术馆",
        "town": "西樵镇",
        "rev_count": 1,
        "avg_rate": 0
      }
    },
    {
      "type": "Feature",
      "geometry": {
        "type": "Point",
        "coordinates": [
          112.97084,
          22.910117
        ]
      },
      "properties": {
        "id": "B0FFKJD696",
        "name": "西樵黄大仙祠",
        "town": "西樵镇",
        "rev_count": 34,
        "avg_rate": 0
      }
    },
    {
      "type": "Feature",
      "geometry": {
        "type": "Point",
        "coordinates": [
          112.92976,
          22.97407
        ]
      },
      "properties": {
        "id": "B0FFKM9807",
        "name": "南海西樵香云纱博物馆",
        "town": "西樵镇",
        "rev_count": 11,
        "avg_rate": 0
      }
    },
    {
      "type": "Feature",
      "geometry": {
        "type": "Point",
        "coordinates": [
          113.20041,
          23.178178
        ]
      },
      "properties": {
        "id": "B0FFKTPRMN",
        "name": "E.LAND(广百广场店)",
        "town": "里水镇",
        "rev_count": 1,
        "avg_rate": 0
      }
    },
    {
      "type": "Feature",
      "geometry": {
        "type": "Point",
        "coordinates": [
          112.983125,
          23.206637
        ]
      },
      "properties": {
        "id": "B0FFKV9JH8",
        "name": "深井烧鹅(兴业广场店)",
        "town": "狮山镇",
        "rev_count": 1,
        "avg_rate": 0
      }
    },
    {
      "type": "Feature",
      "geometry": {
        "type": "Point",
        "coordinates": [
          112.969425,
          22.951259
        ]
      },
      "properties": {
        "id": "B0FFKVTCM4",
        "name": "民强公园",
        "town": "西樵镇",
        "rev_count": 20,
        "avg_rate": 0
      }
    },
    {
      "type": "Feature",
      "geometry": {
        "type": "Point",
        "coordinates": [
          113.189573,
          23.186743
        ]
      },
      "properties": {
        "id": "B0FFL0YCL2",
        "name": "天空之城城堡探险(永润广场里广新城店)",
        "town": "里水镇",
        "rev_count": 1,
        "avg_rate": 0
      }
    },
    {
      "type": "Feature",
      "geometry": {
        "type": "Point",
        "coordinates": [
          113.169373,
          23.113815
        ]
      },
      "properties": {
        "id": "B0FFL92KWP",
        "name": "水月宫",
        "town": "里水镇",
        "rev_count": 3,
        "avg_rate": 0
      }
    },
    {
      "type": "Feature",
      "geometry": {
        "type": "Point",
        "coordinates": [
          113.145114,
          23.27042
        ]
      },
      "properties": {
        "id": "B0FFMAKG02",
        "name": "爱情公园",
        "town": "里水镇",
        "rev_count": 1,
        "avg_rate": 0
      }
    },
    {
      "type": "Feature",
      "geometry": {
        "type": "Point",
        "coordinates": [
          113.064585,
          23.224563
        ]
      },
      "properties": {
        "id": "B0FFMB0M81",
        "name": "陈氏祠堂",
        "town": "狮山镇",
        "rev_count": 1,
        "avg_rate": 0
      }
    },
    {
      "type": "Feature",
      "geometry": {
        "type": "Point",
        "coordinates": [
          112.941724,
          23.063852
        ]
      },
      "properties": {
        "id": "B0FFMD6Z0S",
        "name": "熊熊儿童乐园(佳盛购物广场店)",
        "town": "丹灶镇",
        "rev_count": 1,
        "avg_rate": 0
      }
    },
    {
      "type": "Feature",
      "geometry": {
        "type": "Point",
        "coordinates": [
          113.049459,
          23.063933
        ]
      },
      "properties": {
        "id": "B0G064KRPW",
        "name": "华莱士(罗村中心广场店)",
        "town": "狮山镇",
        "rev_count": 1,
        "avg_rate": 0
      }
    },
    {
      "type": "Feature",
      "geometry": {
        "type": "Point",
        "coordinates": [
          113.200128,
          23.03062
        ]
      },
      "properties": {
        "id": "B0G0M9NJBX",
        "name": "平洲玉器街景区游客中心",
        "town": "桂城街道",
        "rev_count": 10,
        "avg_rate": 0
      }
    },
    {
      "type": "Feature",
      "geometry": {
        "type": "Point",
        "coordinates": [
          112.971355,
          22.926396
        ]
      },
      "properties": {
        "id": "B0G1DAE4LO",
        "name": "西樵山国家地质公园",
        "town": "西樵镇",
        "rev_count": 6,
        "avg_rate": 0
      }
    },
    {
      "type": "Feature",
      "geometry": {
        "type": "Point",
        "coordinates": [
          113.160022,
          23.016228
        ]
      },
      "properties": {
        "id": "B0GR6O2TKA",
        "name": "顺联公园里季华东店(3号门)",
        "town": "桂城街道",
        "rev_count": 1,
        "avg_rate": 0
      }
    },
    {
      "type": "Feature",
      "geometry": {
        "type": "Point",
        "coordinates": [
          113.1528,
          23.047808
        ]
      },
      "properties": {
        "id": "B0H1HUSCW7",
        "name": "创客公园",
        "town": "桂城街道",
        "rev_count": 10,
        "avg_rate": 0
      }
    },
    {
      "type": "Feature",
      "geometry": {
        "type": "Point",
        "coordinates": [
          112.961845,
          23.08438
        ]
      },
      "properties": {
        "id": "B0H1KD15OJ",
        "name": "碰碰车",
        "town": "丹灶镇",
        "rev_count": 5,
        "avg_rate": 0
      }
    },
    {
      "type": "Feature",
      "geometry": {
        "type": "Point",
        "coordinates": [
          113.148603,
          23.049565
        ]
      },
      "properties": {
        "id": "B0H3DCT29A",
        "name": "东门广场",
        "town": "桂城街道",
        "rev_count": 10,
        "avg_rate": 0
      }
    },
    {
      "type": "Feature",
      "geometry": {
        "type": "Point",
        "coordinates": [
          113.141417,
          23.069187
        ]
      },
      "properties": {
        "id": "B0H3J785A0",
        "name": "山顶广场",
        "town": "桂城街道",
        "rev_count": 10,
        "avg_rate": 0
      }
    },
    {
      "type": "Feature",
      "geometry": {
        "type": "Point",
        "coordinates": [
          112.938167,
          22.981387
        ]
      },
      "properties": {
        "id": "B0H62CZH3V",
        "name": "天后宫",
        "town": "丹灶镇",
        "rev_count": 11,
        "avg_rate": 0
      }
    },
    {
      "type": "Feature",
      "geometry": {
        "type": "Point",
        "coordinates": [
          113.098472,
          23.187238
        ]
      },
      "properties": {
        "id": "B0HBG7DUXD",
        "name": "岭南田园印象",
        "town": "大沥镇",
        "rev_count": 10,
        "avg_rate": 0
      }
    },
    {
      "type": "Feature",
      "geometry": {
        "type": "Point",
        "coordinates": [
          112.984615,
          23.130036
        ]
      },
      "properties": {
        "id": "B0HBR57B8T",
        "name": "博爱湖公园北区",
        "town": "狮山镇",
        "rev_count": 2,
        "avg_rate": 0
      }
    },
    {
      "type": "Feature",
      "geometry": {
        "type": "Point",
        "coordinates": [
          112.968474,
          22.908336
        ]
      },
      "properties": {
        "id": "B0HDGHN847",
        "name": "渔耕码头(暂停营业)",
        "town": "西樵镇",
        "rev_count": 1,
        "avg_rate": 0
      }
    },
    {
      "type": "Feature",
      "geometry": {
        "type": "Point",
        "coordinates": [
          112.907543,
          22.988147
        ]
      },
      "properties": {
        "id": "B0HG2U0KTA",
        "name": "铁军公园",
        "town": "西樵镇",
        "rev_count": 2,
        "avg_rate": 0
      }
    },
    {
      "type": "Feature",
      "geometry": {
        "type": "Point",
        "coordinates": [
          113.233225,
          23.019568
        ]
      },
      "properties": {
        "id": "B0HKO5IJHF",
        "name": "阳光沙滩",
        "town": "桂城街道",
        "rev_count": 2,
        "avg_rate": 0
      }
    },
    {
      "type": "Feature",
      "geometry": {
        "type": "Point",
        "coordinates": [
          113.005548,
          22.848963
        ]
      },
      "properties": {
        "id": "B0HKVN69YX",
        "name": "柏美酒店(佛山九江科技园信基广场店)",
        "town": "九江镇",
        "rev_count": 7,
        "avg_rate": 0
      }
    },
    {
      "type": "Feature",
      "geometry": {
        "type": "Point",
        "coordinates": [
          113.153123,
          23.066107
        ]
      },
      "properties": {
        "id": "B0HR0GRI5A",
        "name": "顺德菜(万达广场佛山南海店D座店)",
        "town": "桂城街道",
        "rev_count": 1,
        "avg_rate": 0
      }
    },
    {
      "type": "Feature",
      "geometry": {
        "type": "Point",
        "coordinates": [
          113.107153,
          23.191514
        ]
      },
      "properties": {
        "id": "B0HR0MT89C",
        "name": "中央广播电视总台南海影视城(北3门)",
        "town": "狮山镇",
        "rev_count": 4,
        "avg_rate": 0
      }
    },
    {
      "type": "Feature",
      "geometry": {
        "type": "Point",
        "coordinates": [
          113.144661,
          23.056359
        ]
      },
      "properties": {
        "id": "B0HR9Z7IJO",
        "name": "佛山南海富力广场",
        "town": "桂城街道",
        "rev_count": 1,
        "avg_rate": 0
      }
    },
    {
      "type": "Feature",
      "geometry": {
        "type": "Point",
        "coordinates": [
          113.129113,
          23.050898
        ]
      },
      "properties": {
        "id": "B0HRCONHXW",
        "name": "大润发家电区(鸿大广场店)",
        "town": "桂城街道",
        "rev_count": 2,
        "avg_rate": 0
      }
    },
    {
      "type": "Feature",
      "geometry": {
        "type": "Point",
        "coordinates": [
          113.140758,
          23.055269
        ]
      },
      "properties": {
        "id": "B0HRVR1I92",
        "name": "千灯湖公园-南区",
        "town": "桂城街道",
        "rev_count": 2,
        "avg_rate": 0
      }
    },
    {
      "type": "Feature",
      "geometry": {
        "type": "Point",
        "coordinates": [
          113.19694,
          23.143019
        ]
      },
      "properties": {
        "id": "B0HRXAP2A1",
        "name": "蓝山小镇(国昌广场店)",
        "town": "大沥镇",
        "rev_count": 7,
        "avg_rate": 0
      }
    },
    {
      "type": "Feature",
      "geometry": {
        "type": "Point",
        "coordinates": [
          112.953945,
          22.93661
        ]
      },
      "properties": {
        "id": "B0HUVZ29A5",
        "name": "樵山文化中心A区",
        "town": "西樵镇",
        "rev_count": 1,
        "avg_rate": 0
      }
    },
    {
      "type": "Feature",
      "geometry": {
        "type": "Point",
        "coordinates": [
          113.076624,
          23.136116
        ]
      },
      "properties": {
        "id": "B0I6CUNDAX",
        "name": "人和村公园",
        "town": "大沥镇",
        "rev_count": 1,
        "avg_rate": 0
      }
    },
    {
      "type": "Feature",
      "geometry": {
        "type": "Point",
        "coordinates": [
          113.242024,
          23.003347
        ]
      },
      "properties": {
        "id": "BV10255484",
        "name": "海怡大桥(公交站)",
        "town": "桂城街道",
        "rev_count": 10,
        "avg_rate": 0
      }
    },
    {
      "type": "Feature",
      "geometry": {
        "type": "Point",
        "coordinates": [
          113.218029,
          23.035108
        ]
      },
      "properties": {
        "id": "BV10255864",
        "name": "三山郊野公园(公交站)",
        "town": "桂城街道",
        "rev_count": 10,
        "avg_rate": 0
      }
    },
    {
      "type": "Feature",
      "geometry": {
        "type": "Point",
        "coordinates": [
          112.886999,
          23.106019
        ]
      },
      "properties": {
        "id": "BV10394309",
        "name": "心溪牌坊(公交站)",
        "town": "狮山镇",
        "rev_count": 10,
        "avg_rate": 0
      }
    },
    {
      "type": "Feature",
      "geometry": {
        "type": "Point",
        "coordinates": [
          113.201299,
          23.177353
        ]
      },
      "properties": {
        "id": "BV10609010",
        "name": "浔峰山公园(公交站)",
        "town": "里水镇",
        "rev_count": 23,
        "avg_rate": 0
      }
    },
    {
      "type": "Feature",
      "geometry": {
        "type": "Point",
        "coordinates": [
          113.141459,
          23.070258
        ]
      },
      "properties": {
        "id": "BV11350549",
        "name": "体育公园(公交站)",
        "town": "桂城街道",
        "rev_count": 11,
        "avg_rate": 0
      }
    },
    {
      "type": "Feature",
      "geometry": {
        "type": "Point",
        "coordinates": [
          113.176837,
          23.055906
        ]
      },
      "properties": {
        "id": "BV11540171",
        "name": "荷花广场(公交站)",
        "town": "桂城街道",
        "rev_count": 10,
        "avg_rate": 0
      }
    },
    {
      "type": "Feature",
      "geometry": {
        "type": "Point",
        "coordinates": [
          112.968255,
          22.921958
        ]
      },
      "properties": {
        "id": "B0FFG27DFD",
        "name": "蝴蝶谷",
        "town": "西樵镇",
        "rev_count": 11,
        "avg_rate": 0
      }
    },
    {
      "type": "Feature",
      "geometry": {
        "type": "Point",
        "coordinates": [
          112.983544,
          22.838289
        ]
      },
      "properties": {
        "id": "B0G23ABBRG",
        "name": "摩天轮",
        "town": "丹灶镇",
        "rev_count": 11,
        "avg_rate": 0
      }
    },
    {
      "type": "Feature",
      "geometry": {
        "type": "Point",
        "coordinates": [
          113.200716,
          23.177677
        ]
      },
      "properties": {
        "id": "B0FFIN9PEU",
        "name": "珠江钢琴(广百广场店)",
        "town": "里水镇",
        "rev_count": 1,
        "avg_rate": 0
      }
    },
    {
      "type": "Feature",
      "geometry": {
        "type": "Point",
        "coordinates": [
          113.163582,
          23.092553
        ]
      },
      "properties": {
        "id": "B0FFGB50JA",
        "name": "盐步老龙",
        "town": "大沥镇",
        "rev_count": 1,
        "avg_rate": 0
      }
    },
    {
      "type": "Feature",
      "geometry": {
        "type": "Point",
        "coordinates": [
          112.966649,
          22.927681
        ]
      },
      "properties": {
        "id": "B0HBKXUTS0",
        "name": "滴水岩",
        "town": "西樵镇",
        "rev_count": 10,
        "avg_rate": 0
      }
    },
    {
      "type": "Feature",
      "geometry": {
        "type": "Point",
        "coordinates": [
          113.136965,
          23.096488
        ]
      },
      "properties": {
        "id": "B0FFF4DRLA",
        "name": "华亚广场",
        "town": "里水镇",
        "rev_count": 10,
        "avg_rate": 0
      }
    },
    {
      "type": "Feature",
      "geometry": {
        "type": "Point",
        "coordinates": [
          112.919831,
          23.118402
        ]
      },
      "properties": {
        "id": "B0FFKRLPY7",
        "name": "考拉(福通联沙商业广场店)",
        "town": "丹灶镇",
        "rev_count": 10,
        "avg_rate": 0
      }
    },
    {
      "type": "Feature",
      "geometry": {
        "type": "Point",
        "coordinates": [
          112.929997,
          23.049581
        ]
      },
      "properties": {
        "id": "B0FFKCIQYL",
        "name": "沙水古村落",
        "town": "丹灶镇",
        "rev_count": 2,
        "avg_rate": 0
      }
    },
    {
      "type": "Feature",
      "geometry": {
        "type": "Point",
        "coordinates": [
          112.97889,
          22.920693
        ]
      },
      "properties": {
        "id": "B0FFG250M9",
        "name": "石燕岩-休息亭",
        "town": "西樵镇",
        "rev_count": 5,
        "avg_rate": 0
      }
    },
    {
      "type": "Feature",
      "geometry": {
        "type": "Point",
        "coordinates": [
          113.096329,
          23.141043
        ]
      },
      "properties": {
        "id": "B0FFJEQYNF",
        "name": "贝儿健儿童成长主题乐园(源富广场店)",
        "town": "狮山镇",
        "rev_count": 2,
        "avg_rate": 0
      }
    },
    {
      "type": "Feature",
      "geometry": {
        "type": "Point",
        "coordinates": [
          112.96052,
          22.935791
        ]
      },
      "properties": {
        "id": "B0HR4SYSLR",
        "name": "云泉仙馆(暂停营业)",
        "town": "西樵镇",
        "rev_count": 10,
        "avg_rate": 0
      }
    },
    {
      "type": "Feature",
      "geometry": {
        "type": "Point",
        "coordinates": [
          113.102843,
          23.188455
        ]
      },
      "properties": {
        "id": "B0FFFAMBP4",
        "name": "东王府",
        "town": "大沥镇",
        "rev_count": 1,
        "avg_rate": 0
      }
    },
    {
      "type": "Feature",
      "geometry": {
        "type": "Point",
        "coordinates": [
          112.977584,
          23.092932
        ]
      },
      "properties": {
        "id": "B02F50URGB",
        "name": "狮山镇文化站",
        "town": "狮山镇",
        "rev_count": 4,
        "avg_rate": 0
      }
    },
    {
      "type": "Feature",
      "geometry": {
        "type": "Point",
        "coordinates": [
          112.979454,
          22.938499
        ]
      },
      "properties": {
        "id": "B0FFF365DR",
        "name": "碧玉洞",
        "town": "西樵镇",
        "rev_count": 10,
        "avg_rate": 0
      }
    },
    {
      "type": "Feature",
      "geometry": {
        "type": "Point",
        "coordinates": [
          113.133995,
          23.045955
        ]
      },
      "properties": {
        "id": "B0FFFFGQMF",
        "name": "樱花(南海广场店)",
        "town": "桂城街道",
        "rev_count": 3,
        "avg_rate": 0
      }
    },
    {
      "type": "Feature",
      "geometry": {
        "type": "Point",
        "coordinates": [
          113.129768,
          23.251772
        ]
      },
      "properties": {
        "id": "B0FFHQSORI",
        "name": "杏记甜品(万福城商业广场店)",
        "town": "里水镇",
        "rev_count": 1,
        "avg_rate": 0
      }
    },
    {
      "type": "Feature",
      "geometry": {
        "type": "Point",
        "coordinates": [
          113.150072,
          23.011155
        ]
      },
      "properties": {
        "id": "B02F5076F6",
        "name": "石啃公园",
        "town": "桂城街道",
        "rev_count": 11,
        "avg_rate": 0
      }
    },
    {
      "type": "Feature",
      "geometry": {
        "type": "Point",
        "coordinates": [
          113.14225,
          23.153776
        ]
      },
      "properties": {
        "id": "B0G3HL6JFL",
        "name": "展旗楼",
        "town": "里水镇",
        "rev_count": 1,
        "avg_rate": 0
      }
    },
    {
      "type": "Feature",
      "geometry": {
        "type": "Point",
        "coordinates": [
          112.883762,
          22.931783
        ]
      },
      "properties": {
        "id": "B0FFIJWP9Y",
        "name": "西樵平沙岛-廷俊李公祠",
        "town": "西樵镇",
        "rev_count": 51,
        "avg_rate": 0
      }
    },
    {
      "type": "Feature",
      "geometry": {
        "type": "Point",
        "coordinates": [
          112.980879,
          22.93878
        ]
      },
      "properties": {
        "id": "B0FFHHHO38",
        "name": "观光车北门站",
        "town": "西樵镇",
        "rev_count": 1,
        "avg_rate": 0
      }
    },
    {
      "type": "Feature",
      "geometry": {
        "type": "Point",
        "coordinates": [
          113.197,
          23.143507
        ]
      },
      "properties": {
        "id": "B0FFG2F4GD",
        "name": "汤臣倍健(国昌广场)",
        "town": "里水镇",
        "rev_count": 10,
        "avg_rate": 0
      }
    },
    {
      "type": "Feature",
      "geometry": {
        "type": "Point",
        "coordinates": [
          112.939961,
          22.926852
        ]
      },
      "properties": {
        "id": "B0FFG1YR84",
        "name": "黄飞鸿狮艺武术馆-表演台",
        "town": "西樵镇",
        "rev_count": 1,
        "avg_rate": 0
      }
    },
    {
      "type": "Feature",
      "geometry": {
        "type": "Point",
        "coordinates": [
          113.083468,
          23.066242
        ]
      },
      "properties": {
        "id": "B0FFHS5G1Y",
        "name": "大夫祠",
        "town": "大沥镇",
        "rev_count": 1,
        "avg_rate": 0
      }
    },
    {
      "type": "Feature",
      "geometry": {
        "type": "Point",
        "coordinates": [
          112.97281,
          22.920043
        ]
      },
      "properties": {
        "id": "B0HDDK8M6O",
        "name": "九龙岩",
        "town": "西樵镇",
        "rev_count": 5,
        "avg_rate": 0
      }
    },
    {
      "type": "Feature",
      "geometry": {
        "type": "Point",
        "coordinates": [
          113.184227,
          23.11062
        ]
      },
      "properties": {
        "id": "B0IDAD15CG",
        "name": "糖水博物馆",
        "town": "里水镇",
        "rev_count": 1,
        "avg_rate": 0
      }
    },
    {
      "type": "Feature",
      "geometry": {
        "type": "Point",
        "coordinates": [
          113.149029,
          23.048981
        ]
      },
      "properties": {
        "id": "B0HR0KLCFF",
        "name": "湿地公园",
        "town": "桂城街道",
        "rev_count": 74,
        "avg_rate": 0
      }
    },
    {
      "type": "Feature",
      "geometry": {
        "type": "Point",
        "coordinates": [
          113.015796,
          23.143285
        ]
      },
      "properties": {
        "id": "B0FFIB8RO6",
        "name": "黄洞径水库",
        "town": "狮山镇",
        "rev_count": 10,
        "avg_rate": 0
      }
    },
    {
      "type": "Feature",
      "geometry": {
        "type": "Point",
        "coordinates": [
          113.129475,
          23.059334
        ]
      },
      "properties": {
        "id": "B0FFLEX7DN",
        "name": "叠滘水乡",
        "town": "桂城街道",
        "rev_count": 3,
        "avg_rate": 0
      }
    },
    {
      "type": "Feature",
      "geometry": {
        "type": "Point",
        "coordinates": [
          113.147875,
          23.014119
        ]
      },
      "properties": {
        "id": "B0FFIJRORR",
        "name": "拉夏贝尔(鹏瑞利季华广场店)",
        "town": "桂城街道",
        "rev_count": 1,
        "avg_rate": 0
      }
    },
    {
      "type": "Feature",
      "geometry": {
        "type": "Point",
        "coordinates": [
          113.181287,
          23.114047
        ]
      },
      "properties": {
        "id": "B0FFMA2EBD",
        "name": "图南文化艺术中心",
        "town": "里水镇",
        "rev_count": 1,
        "avg_rate": 0
      }
    },
    {
      "type": "Feature",
      "geometry": {
        "type": "Point",
        "coordinates": [
          113.141839,
          23.046792
        ]
      },
      "properties": {
        "id": "B0HKCS5YZI",
        "name": "桂花岛",
        "town": "桂城街道",
        "rev_count": 1,
        "avg_rate": 0
      }
    },
    {
      "type": "Feature",
      "geometry": {
        "type": "Point",
        "coordinates": [
          113.167693,
          23.231023
        ]
      },
      "properties": {
        "id": "B0HKPD8ON5",
        "name": "梦里水乡-荷花世界",
        "town": "里水镇",
        "rev_count": 1,
        "avg_rate": 0
      }
    },
    {
      "type": "Feature",
      "geometry": {
        "type": "Point",
        "coordinates": [
          113.046332,
          23.059966
        ]
      },
      "properties": {
        "id": "B0FFFA1KL7",
        "name": "冯不记米坊(南海金盛广场店)",
        "town": "狮山镇",
        "rev_count": 1,
        "avg_rate": 0
      }
    },
    {
      "type": "Feature",
      "geometry": {
        "type": "Point",
        "coordinates": [
          113.129213,
          23.051482
        ]
      },
      "properties": {
        "id": "B0IAU5Z8GI",
        "name": "天音科技(鸿大广场店)",
        "town": "桂城街道",
        "rev_count": 1,
        "avg_rate": 0
      }
    },
    {
      "type": "Feature",
      "geometry": {
        "type": "Point",
        "coordinates": [
          113.168893,
          22.997967
        ]
      },
      "properties": {
        "id": "B02F50WIZD",
        "name": "同庆坊",
        "town": "桂城街道",
        "rev_count": 1,
        "avg_rate": 0
      }
    },
    {
      "type": "Feature",
      "geometry": {
        "type": "Point",
        "coordinates": [
          112.959415,
          23.064405
        ]
      },
      "properties": {
        "id": "B0I2RHQIP1",
        "name": "游乐园(金沙广场店)",
        "town": "狮山镇",
        "rev_count": 2,
        "avg_rate": 0
      }
    },
    {
      "type": "Feature",
      "geometry": {
        "type": "Point",
        "coordinates": [
          113.197534,
          23.187539
        ]
      },
      "properties": {
        "id": "B0JBS5S8NS",
        "name": "从一蓝莓采摘园(南海白塔店)",
        "town": "里水镇",
        "rev_count": 1,
        "avg_rate": 0
      }
    },
    {
      "type": "Feature",
      "geometry": {
        "type": "Point",
        "coordinates": [
          112.984316,
          22.918195
        ]
      },
      "properties": {
        "id": "B0J1F79OGZ",
        "name": "瞧溪谷西樵山亲水溪谷",
        "town": "西樵镇",
        "rev_count": 10,
        "avg_rate": 0
      }
    },
    {
      "type": "Feature",
      "geometry": {
        "type": "Point",
        "coordinates": [
          113.159053,
          23.016404
        ]
      },
      "properties": {
        "id": "B0JRRYOSNV",
        "name": "星沐森林·昆虫自然博物馆",
        "town": "桂城街道",
        "rev_count": 3,
        "avg_rate": 0
      }
    },
    {
      "type": "Feature",
      "geometry": {
        "type": "Point",
        "coordinates": [
          113.20033,
          23.133643
        ]
      },
      "properties": {
        "id": "B0I2YDRIF8",
        "name": "文化艺术中心",
        "town": "里水镇",
        "rev_count": 10,
        "avg_rate": 0
      }
    },
    {
      "type": "Feature",
      "geometry": {
        "type": "Point",
        "coordinates": [
          113.181953,
          23.11027
        ]
      },
      "properties": {
        "id": "B0JROAU7JW",
        "name": "如轩·海鲜砂锅粥·潮汕菜(黄岐嘉州广场店)",
        "town": "大沥镇",
        "rev_count": 1,
        "avg_rate": 0
      }
    },
    {
      "type": "Feature",
      "geometry": {
        "type": "Point",
        "coordinates": [
          113.171923,
          23.069101
        ]
      },
      "properties": {
        "id": "B0KUBRUDMZ",
        "name": "南海塔",
        "town": "桂城街道",
        "rev_count": 1,
        "avg_rate": 0
      }
    }
  ]
}